{"type": "FeatureCollection", "features": [{"type": "Feature", "properties": {"norad_id": 24876, "name": "GPS BIIR-2  (PRN 13)", "group": "gnss", "lat": 48.473563760521415, "lon": -124.20153940611573, "alt_km": 20040.115567426823, "timestamp": "2025-12-18T08:58:43.652524+00:00", "meta": {"OBJECT_NAME": "GPS BIIR-2  (PRN 13)", "OBJECT_ID": "1997-035A", "EPOCH": "2025-12-17T17:14:35.683584", "MEAN_MOTION": 2.00563712, "ECCENTRICITY": 0.00967872, "INCLINATION": 55.8976, "RA_OF_ASC_NODE": 105.6742, "ARG_OF_PERICENTER": 56.9828, "MEAN_ANOMALY": 303.9131, "EPHEMERIS_TYPE": 0, "CLASSIFICATION_TYPE": "U", "NORAD_CAT_ID": 24876, "ELEMENT_SET_NO": 999, "REV_AT_EPOCH": 20831, "BSTAR": 0, "MEAN_MOTION_DOT": -2.3e-07, "MEAN_MOTION_DDOT": 0}, "tle": {"line1": "1 24876U 97035A   25351.71846856 -.00000023  00000+0  00000+0 0  9996", "line2": "2 24876  55.8976 105.6742 0096787  56.9828 303.9131  2.00563712208319"}}, "geometry": {"type": "Point", "coordinates": [-124.20153940611573, 48.473563760521415]}}, {"type": "Feature", "properties": {"norad_id": 26360, "name": "GPS BIIR-4  (PRN 20)", "group": "gnss", "lat": -21.09356648486175, "lon": -137.72762454093004, "alt_km": 20101.332774765968, "timestamp": "2025-12-18T08:58:43.652571+00:00", "meta": {"OBJECT_NAME": "GPS BIIR-4  (PRN 20)", "OBJECT_ID": "2000-025A", "EPOCH": "2025-12-17T20:03:48.692736", "MEAN_MOTION": 2.005674, "ECCENTRICITY": 0.00388914, "INCLINATION": 55.0482, "RA_OF_ASC_NODE": 26.6317, "ARG_OF_PERICENTER": 242.4745, "MEAN_ANOMALY": 295.2802, "EPHEMERIS_TYPE": 0, "CLASSIFICATION_TYPE": "U", "NORAD_CAT_ID": 26360, "ELEMENT_SET_NO": 999, "REV_AT_EPOCH": 18763, "BSTAR": 0, "MEAN_MOTION_DOT": -7.7e-07, "MEAN_MOTION_DDOT": 0}, "tle": {"line1": "1 26360U 00025A   25351.83598024 -.00000077  00000+0  00000+0 0  9992", "line2": "2 26360  55.0482  26.6317 0038891 242.4745 295.2802  2.00567400187632"}}, "geometry": {"type": "Point", "coordinates": [-137.72762454093004, -21.09356648486175]}}, {"type": "Feature", "properties": {"norad_id": 26407, "name": "GPS BIIR-5  (PRN 22)", "group": "gnss", "lat": 36.930849519687925, "lon": -105.73937107616266, "alt_km": 20261.535033612265, "timestamp": "2025-12-18T08:58:43.652590+00:00", "meta": {"OBJECT_NAME": "GPS BIIR-5  (PRN 22)", "OBJECT_ID": "2000-040A", "EPOCH": "2025-12-17T13:07:08.215968", "MEAN_MOTION": 2.00568099, "ECCENTRICITY": 0.0125756, "INCLINATION": 54.8897, "RA_OF_ASC_NODE": 222.3778, "ARG_OF_PERICENTER": 301.8897, "MEAN_ANOMALY": 226.5653, "EPHEMERIS_TYPE": 0, "CLASSIFICATION_TYPE": "U", "NORAD_CAT_ID": 26407, "ELEMENT_SET_NO": 999, "REV_AT_EPOCH": 18630, "BSTAR": 0, "MEAN_MOTION_DOT": 7.1e-07, "MEAN_MOTION_DDOT": 0}, "tle": {"line1": "1 26407U 00040A   25351.54662287  .00000071  00000+0  00000+0 0  9995", "line2": "2 26407  54.8897 222.3778 0125756 301.8897 226.5653  2.00568099186301"}}, "geometry": {"type": "Point", "coordinates": [-105.73937107616266, 36.930849519687925]}}, {"type": "Feature", "properties": {"norad_id": 27663, "name": "GPS BIIR-8  (PRN 16)", "group": "gnss", "lat": -2.5690051481350804, "lon": 43.97099822654464, "alt_km": 20437.761246794147, "timestamp": "2025-12-18T08:58:43.652605+00:00", "meta": {"OBJECT_NAME": "GPS BIIR-8  (PRN 16)", "OBJECT_ID": "2003-005A", "EPOCH": "2025-12-17T15:19:29.390304", "MEAN_MOTION": 2.00570709, "ECCENTRICITY": 0.01476333, "INCLINATION": 54.9222, "RA_OF_ASC_NODE": 222.1834, "ARG_OF_PERICENTER": 51.8674, "MEAN_ANOMALY": 318.886, "EPHEMERIS_TYPE": 0, "CLASSIFICATION_TYPE": "U", "NORAD_CAT_ID": 27663, "ELEMENT_SET_NO": 999, "REV_AT_EPOCH": 16767, "BSTAR": 0, "MEAN_MOTION_DOT": 7.2e-07, "MEAN_MOTION_DDOT": 0}, "tle": {"line1": "1 27663U 03005A   25351.63853461  .00000072  00000+0  00000+0 0  9991", "line2": "2 27663  54.9222 222.1834 0147633  51.8674 318.8860  2.00570709167678"}}, "geometry": {"type": "Point", "coordinates": [43.97099822654464, -2.5690051481350804]}}, {"type": "Feature", "properties": {"norad_id": 28190, "name": "GPS BIIR-11 (PRN 19)", "group": "gnss", "lat": -15.819702637415924, "lon": -88.46886688670074, "alt_km": 20470.751836356885, "timestamp": "2025-12-18T08:58:43.652618+00:00", "meta": {"OBJECT_NAME": "GPS BIIR-11 (PRN 19)", "OBJECT_ID": "2004-009A", "EPOCH": "2025-12-16T15:39:18.319104", "MEAN_MOTION": 2.00560719, "ECCENTRICITY": 0.01083863, "INCLINATION": 54.9821, "RA_OF_ASC_NODE": 283.0612, "ARG_OF_PERICENTER": 167.7046, "MEAN_ANOMALY": 9.4896, "EPHEMERIS_TYPE": 0, "CLASSIFICATION_TYPE": "U", "NORAD_CAT_ID": 28190, "ELEMENT_SET_NO": 999, "REV_AT_EPOCH": 15928, "BSTAR": 0, "MEAN_MOTION_DOT": -6.5e-07, "MEAN_MOTION_DDOT": 0}, "tle": {"line1": "1 28190U 04009A   25350.65229536 -.00000065  00000+0  00000+0 0  9996", "line2": "2 28190  54.9821 283.0612 0108386 167.7046   9.4896  2.00560719159281"}}, "geometry": {"type": "Point", "coordinates": [-88.46886688670074, -15.819702637415924]}}, {"type": "Feature", "properties": {"norad_id": 28474, "name": "GPS BIIR-13 (PRN 02)", "group": "gnss", "lat": 33.81963952783765, "lon": -0.11255795545332861, "alt_km": 20195.99816890357, "timestamp": "2025-12-18T08:58:43.652631+00:00", "meta": {"OBJECT_NAME": "GPS BIIR-13 (PRN 02)", "OBJECT_ID": "2004-045A", "EPOCH": "2025-12-17T13:48:23.319360", "MEAN_MOTION": 2.00569852, "ECCENTRICITY": 0.01708441, "INCLINATION": 55.2383, "RA_OF_ASC_NODE": 332.2112, "ARG_OF_PERICENTER": 309.4586, "MEAN_ANOMALY": 234.4084, "EPHEMERIS_TYPE": 0, "CLASSIFICATION_TYPE": "U", "NORAD_CAT_ID": 28474, "ELEMENT_SET_NO": 999, "REV_AT_EPOCH": 15478, "BSTAR": 0, "MEAN_MOTION_DOT": -8.8e-07, "MEAN_MOTION_DDOT": 0}, "tle": {"line1": "1 28474U 04045A   25351.57526990 -.00000088  00000+0  00000+0 0  9992", "line2": "2 28474  55.2383 332.2112 0170844 309.4586 234.4084  2.00569852154783"}}, "geometry": {"type": "Point", "coordinates": [-0.11255795545332861, 33.81963952783765]}}, {"type": "Feature", "properties": {"norad_id": 28874, "name": "GPS BIIRM-1 (PRN 17)", "group": "gnss", "lat": 0.9303461953598148, "lon": -78.8925230635375, "alt_km": 20042.843193637993, "timestamp": "2025-12-18T08:58:43.652643+00:00", "meta": {"OBJECT_NAME": "GPS BIIRM-1 (PRN 17)", "OBJECT_ID": "2005-038A", "EPOCH": "2025-12-17T21:14:50.487648", "MEAN_MOTION": 2.00578159, "ECCENTRICITY": 0.01314846, "INCLINATION": 55.0273, "RA_OF_ASC_NODE": 280.4937, "ARG_OF_PERICENTER": 293.6629, "MEAN_ANOMALY": 73.133, "EPHEMERIS_TYPE": 0, "CLASSIFICATION_TYPE": "U", "NORAD_CAT_ID": 28874, "ELEMENT_SET_NO": 999, "REV_AT_EPOCH": 14820, "BSTAR": 0, "MEAN_MOTION_DOT": -4.9e-07, "MEAN_MOTION_DDOT": 0}, "tle": {"line1": "1 28874U 05038A   25351.88530657 -.00000049  00000+0  00000+0 0  9995", "line2": "2 28874  55.0273 280.4937 0131484 293.6629  73.1330  2.00578159148203"}}, "geometry": {"type": "Point", "coordinates": [-78.8925230635375, 0.9303461953598148]}}, {"type": "Feature", "properties": {"norad_id": 28899, "name": "INMARSAT 4-F2 (SOUTHPAN/PRN 122)", "group": "gnss", "lat": -3.0024158926070013, "lon": 5.541142007831619, "alt_km": 35787.86566850172, "timestamp": "2025-12-18T08:58:43.652657+00:00", "meta": {"OBJECT_NAME": "INMARSAT 4-F2 (SOUTHPAN/PRN 122)", "OBJECT_ID": "2005-044A", "EPOCH": "2025-12-17T20:51:29.780352", "MEAN_MOTION": 1.00271149, "ECCENTRICITY": 0.00024878, "INCLINATION": 4.8586, "RA_OF_ASC_NODE": 43.7016, "ARG_OF_PERICENTER": 225.4769, "MEAN_ANOMALY": 273.9373, "EPHEMERIS_TYPE": 0, "CLASSIFICATION_TYPE": "U", "NORAD_CAT_ID": 28899, "ELEMENT_SET_NO": 999, "REV_AT_EPOCH": 7370, "BSTAR": 0, "MEAN_MOTION_DOT": -2.4e-06, "MEAN_MOTION_DDOT": 0}, "tle": {"line1": "1 28899U 05044A   25351.86909468 -.00000240  00000+0  00000+0 0  9990", "line2": "2 28899   4.8586  43.7016 0002487 225.4769 273.9373  1.00271149 73702"}}, "geometry": {"type": "Point", "coordinates": [5.541142007831619, -3.0024158926070013]}}, {"type": "Feature", "properties": {"norad_id": 29486, "name": "GPS BIIRM-2 (PRN 31)", "group": "gnss", "lat": -53.852512871624235, "lon": 54.57586929407698, "alt_km": 20435.59105208658, "timestamp": "2025-12-18T08:58:43.652670+00:00", "meta": {"OBJECT_NAME": "GPS BIIRM-2 (PRN 31)", "OBJECT_ID": "2006-042A", "EPOCH": "2025-12-16T18:24:54.505728", "MEAN_MOTION": 2.00554045, "ECCENTRICITY": 0.01073341, "INCLINATION": 54.6946, "RA_OF_ASC_NODE": 158.5809, "ARG_OF_PERICENTER": 52.0567, "MEAN_ANOMALY": 130.2096, "EPHEMERIS_TYPE": 0, "CLASSIFICATION_TYPE": "U", "NORAD_CAT_ID": 29486, "ELEMENT_SET_NO": 999, "REV_AT_EPOCH": 14073, "BSTAR": 0, "MEAN_MOTION_DOT": 8.7e-07, "MEAN_MOTION_DDOT": 0}, "tle": {"line1": "1 29486U 06042A   25350.76729752  .00000087  00000+0  00000+0 0  9994", "line2": "2 29486  54.6946 158.5809 0107334  52.0567 130.2096  2.00554045140735"}}, "geometry": {"type": "Point", "coordinates": [54.57586929407698, -53.852512871624235]}}, {"type": "Feature", "properties": {"norad_id": 29601, "name": "GPS BIIRM-3 (PRN 12)", "group": "gnss", "lat": -32.05881986830912, "lon": -164.85873088611746, "alt_km": 20326.52423868392, "timestamp": "2025-12-18T08:58:43.652682+00:00", "meta": {"OBJECT_NAME": "GPS BIIRM-3 (PRN 12)", "OBJECT_ID": "2006-052A", "EPOCH": "2025-12-16T22:25:58.603584", "MEAN_MOTION": 2.00573965, "ECCENTRICITY": 0.00876594, "INCLINATION": 54.9698, "RA_OF_ASC_NODE": 221.2318, "ARG_OF_PERICENTER": 87.3961, "MEAN_ANOMALY": 273.6987, "EPHEMERIS_TYPE": 0, "CLASSIFICATION_TYPE": "U", "NORAD_CAT_ID": 29601, "ELEMENT_SET_NO": 999, "REV_AT_EPOCH": 13975, "BSTAR": 0, "MEAN_MOTION_DOT": 7e-07, "MEAN_MOTION_DDOT": 0}, "tle": {"line1": "1 29601U 06052A   25350.93470606  .00000070  00000+0  00000+0 0  9996", "line2": "2 29601  54.9698 221.2318 0087659  87.3961 273.6987  2.00573965139753"}}, "geometry": {"type": "Point", "coordinates": [-164.85873088611746, -32.05881986830912]}}]}